[Satellite]
VERSION=1.1
NAME=ASTRA 3B
NICKNAME=ASTRA 3B
TLE1=1 36581U 10021A   17186.07530782  .00000132  00000-0  00000-0 0  9998
TLE2=2 36581   0.0477 322.4977 0002909 152.2191 219.1293  1.00273354 26097
